{
  "type": "FeatureCollection",
  "features": [
    {
      "type": "Feature",
      "properties": {
        "norad_id": 57400,
        "name": "TIANMU-1 08",
        "group": "weather",
        "lat": 52.6741240624072,
        "lon": 37.89841001122193,
        "alt_km": 471.46955380872623,
        "timestamp": "2025-12-24T03:53:29.285488+00:00",
        "meta_object_name": "TIANMU-1 08",
        "meta_object_id": "2023-101B",
        "meta_epoch": "2025-12-23T21:22:24.429792",
        "meta_mean_motion": 15.28205796,
        "meta_eccentricity": 0.0007033,
        "meta_inclination": 97.2845,
        "meta_ra_of_asc_node": 47.2904,
        "meta_arg_of_pericenter": 52.4701,
        "meta_mean_anomaly": 307.7177,
        "meta_ephemeris_type": 0,
        "meta_classification_type": "U",
        "meta_norad_cat_id": 57400,
        "meta_element_set_no": 999,
        "meta_rev_at_epoch": 13485,
        "meta_bstar": 0.00028396,
        "meta_mean_motion_dot": 7.738e-05,
        "meta_mean_motion_ddot": 0,
        "tle_line1": "1 57400U 23101B   25357.89056053  .00007738  00000+0  28396-3 0  9996",
        "tle_line2": "2 57400  97.2845  47.2904 0007033  52.4701 307.7177 15.28205796134859"
      },
      "geometry": {
        "type": "Point",
        "coordinates": [
          37.89841001122193,
          52.6741240624072
        ]
      }
    },
    {
      "type": "Feature",
      "properties": {
        "norad_id": 57401,
        "name": "TIANMU-1 09",
        "group": "weather",
        "lat": 51.94103836075024,
        "lon": -123.53914260164855,
        "alt_km": 475.16751438057963,
        "timestamp": "2025-12-24T03:53:29.285498+00:00",
        "meta_object_name": "TIANMU-1 09",
        "meta_object_id": "2023-101C",
        "meta_epoch": "2025-12-23T21:03:02.545056",
        "meta_mean_motion": 15.28240137,
        "meta_eccentricity": 0.0006293,
        "meta_inclination": 97.2802,
        "meta_ra_of_asc_node": 46.7848,
        "meta_arg_of_pericenter": 53.4077,
        "meta_mean_anomaly": 306.7741,
        "meta_ephemeris_type": 0,
        "meta_classification_type": "U",
        "meta_norad_cat_id": 57401,
        "meta_element_set_no": 999,
        "meta_rev_at_epoch": 13485,
        "meta_bstar": 0.0002787,
        "meta_mean_motion_dot": 7.601e-05,
        "meta_mean_motion_ddot": 0,
        "tle_line1": "1 57401U 23101C   25357.87711279  .00007601  00000+0  27870-3 0  9998",
        "tle_line2": "2 57401  97.2802  46.7848 0006293  53.4077 306.7741 15.28240137134852"
      },
      "geometry": {
        "type": "Point",
        "coordinates": [
          -123.53914260164855,
          51.94103836075024
        ]
      }
    },
    {
      "type": "Feature",
      "properties": {
        "norad_id": 57402,
        "name": "TIANMU-1 10",
        "group": "weather",
        "lat": -60.41477752269038,
        "lon": 60.95346265722797,
        "alt_km": 490.2457191260155,
        "timestamp": "2025-12-24T03:53:29.285508+00:00",
        "meta_object_name": "TIANMU-1 10",
        "meta_object_id": "2023-101D",
        "meta_epoch": "2025-12-23T20:18:06.292224",
        "meta_mean_motion": 15.28231299,
        "meta_eccentricity": 0.0008028,
        "meta_inclination": 97.2883,
        "meta_ra_of_asc_node": 47.6159,
        "meta_arg_of_pericenter": 50.9524,
        "meta_mean_anomaly": 309.2429,
        "meta_ephemeris_type": 0,
        "meta_classification_type": "U",
        "meta_norad_cat_id": 57402,
        "meta_element_set_no": 999,
        "meta_rev_at_epoch": 13484,
        "meta_bstar": 0.00027671,
        "meta_mean_motion_dot": 7.546e-05,
        "meta_mean_motion_ddot": 0,
        "tle_line1": "1 57402U 23101D   25357.84590616  .00007546  00000+0  27671-3 0  9993",
        "tle_line2": "2 57402  97.2883  47.6159 0008028  50.9524 309.2429 15.28231299134843"
      },
      "geometry": {
        "type": "Point",
        "coordinates": [
          60.95346265722797,
          -60.41477752269038
        ]
      }
    },
    {
      "type": "Feature",
      "properties": {
        "norad_id": 57490,
        "name": "FENGYUN 3F",
        "group": "weather",
        "lat": 72.14528330737863,
        "lon": 37.863734065541934,
        "alt_km": 818.287550838405,
        "timestamp": "2025-12-24T03:53:29.285518+00:00",
        "meta_object_name": "FENGYUN 3F",
        "meta_object_id": "2023-111A",
        "meta_epoch": "2025-12-23T20:46:39.810720",
        "meta_mean_motion": 14.19896376,
        "meta_eccentricity": 8.11e-05,
        "meta_inclination": 98.7068,
        "meta_ra_of_asc_node": 65.9789,
        "meta_arg_of_pericenter": 115.8302,
        "meta_mean_anomaly": 244.2958,
        "meta_ephemeris_type": 0,
        "meta_classification_type": "U",
        "meta_norad_cat_id": 57490,
        "meta_element_set_no": 999,
        "meta_rev_at_epoch": 12398,
        "meta_bstar": 6.1021e-05,
        "meta_mean_motion_dot": 8.6e-07,
        "meta_mean_motion_ddot": 0,
        "tle_line1": "1 57490U 23111A   25357.86573855  .00000086  00000+0  61021-4 0  9999",
        "tle_line2": "2 57490  98.7068  65.9789 0000811 115.8302 244.2958 14.19896376123980"
      },
      "geometry": {
        "type": "Point",
        "coordinates": [
          37.863734065541934,
          72.14528330737863
        ]
      }
    },
    {
      "type": "Feature",
      "properties": {
        "norad_id": 58584,
        "name": "ARKTIKA-M 2",
        "group": "weather",
        "lat": 50.42026929441507,
        "lon": -44.023061231678106,
        "alt_km": 27122.69861595525,
        "timestamp": "2025-12-24T03:53:29.285533+00:00",
        "meta_object_name": "ARKTIKA-M 2",
        "meta_object_id": "2023-198A",
        "meta_epoch": "2025-12-23T19:04:51.780000",
        "meta_mean_motion": 2.00602438,
        "meta_eccentricity": 0.6865821,
        "meta_inclination": 63.2256,
        "meta_ra_of_asc_node": 173.6885,
        "meta_arg_of_pericenter": 268.0594,
        "meta_mean_anomaly": 18.8414,
        "meta_ephemeris_type": 0,
        "meta_classification_type": "U",
        "meta_norad_cat_id": 58584,
        "meta_element_set_no": 999,
        "meta_rev_at_epoch": 1480,
        "meta_bstar": 0,
        "meta_mean_motion_dot": 2.16e-06,
        "meta_mean_motion_ddot": 0,
        "tle_line1": "1 58584U 23198A   25357.79504375  .00000216  00000+0  00000+0 0  9992",
        "tle_line2": "2 58584  63.2256 173.6885 6865821 268.0594  18.8414  2.00602438 14808"
      },
      "geometry": {
        "type": "Point",
        "coordinates": [
          -44.023061231678106,
          50.42026929441507
        ]
      }
    },
    {
      "type": "Feature",
      "properties": {
        "norad_id": 58645,
        "name": "TIANMU-1 11",
        "group": "weather",
        "lat": -25.029493834446942,
        "lon": 21.044545855201346,
        "alt_km": 495.77719036463714,
        "timestamp": "2025-12-24T03:53:29.285545+00:00",
        "meta_object_name": "TIANMU-1 11",
        "meta_object_id": "2023-205A",
        "meta_epoch": "2025-12-23T20:07:35.971392",
        "meta_mean_motion": 15.24727181,
        "meta_eccentricity": 0.000754,
        "meta_inclination": 97.3595,
        "meta_ra_of_asc_node": 17.2667,
        "meta_arg_of_pericenter": 262.8731,
        "meta_mean_anomaly": 97.165,
        "meta_ephemeris_type": 0,
        "meta_classification_type": "U",
        "meta_norad_cat_id": 58645,
        "meta_element_set_no": 999,
        "meta_rev_at_epoch": 11078,
        "meta_bstar": 0.00024332,
        "meta_mean_motion_dot": 5.956e-05,
        "meta_mean_motion_ddot": 0,
        "tle_line1": "1 58645U 23205A   25357.83861078  .00005956  00000+0  24332-3 0  9994",
        "tle_line2": "2 58645  97.3595  17.2667 0007540 262.8731  97.1650 15.24727181110785"
      },
      "geometry": {
        "type": "Point",
        "coordinates": [
          21.044545855201346,
          -25.029493834446942
        ]
      }
    },
    {
      "type": "Feature",
      "properties": {
        "norad_id": 58646,
        "name": "TIANMU-1 12",
        "group": "weather",
        "lat": -2.29770081022766,
        "lon": -162.91079509106126,
        "alt_km": 493.12452134512023,
        "timestamp": "2025-12-24T03:53:29.285555+00:00",
        "meta_object_name": "TIANMU-1 12",
        "meta_object_id": "2023-205B",
        "meta_epoch": "2025-12-23T20:47:36.976416",
        "meta_mean_motion": 15.24614106,
        "meta_eccentricity": 0.0005927,
        "meta_inclination": 97.3583,
        "meta_ra_of_asc_node": 17.0958,
        "meta_arg_of_pericenter": 240.5538,
        "meta_mean_anomaly": 119.5109,
        "meta_ephemeris_type": 0,
        "meta_classification_type": "U",
        "meta_norad_cat_id": 58646,
        "meta_element_set_no": 999,
        "meta_rev_at_epoch": 11077,
        "meta_bstar": 0.00026999,
        "meta_mean_motion_dot": 6.592e-05,
        "meta_mean_motion_ddot": 0,
        "tle_line1": "1 58646U 23205B   25357.86640019  .00006592  00000+0  26999-3 0  9996",
        "tle_line2": "2 58646  97.3583  17.0958 0005927 240.5538 119.5109 15.24614106110778"
      },
      "geometry": {
        "type": "Point",
        "coordinates": [
          -162.91079509106126,
          -2.29770081022766
        ]
      }
    }
  ]
}